{
    "links": {
        "self": "http://www.neowsapp.com/rest/v1/neo/3989079?api_key=iIulBulltgU6a56xZRHN4H3l9WmuAYTsLGpBGhQ2"
    },
    "id": "3989079",
    "neo_reference_id": "3989079",
    "name": "(2020 BF4)",
    "designation": "2020 BF4",
    "nasa_jpl_url": "http://ssd.jpl.nasa.gov/sbdb.cgi?sstr=3989079",
    "absolute_magnitude_h": 20.099,
    "estimated_diameter": {
        "kilometers": {
            "estimated_diameter_min": 0.2539539526,
            "estimated_diameter_max": 0.5678583011
        },
        "meters": {
            "estimated_diameter_min": 253.953952557,
            "estimated_diameter_max": 567.8583010721
        },
        "miles": {
            "estimated_diameter_min": 0.1577996215,
            "estimated_diameter_max": 0.3528506804
        },
        "feet": {
            "estimated_diameter_min": 833.182285707,
            "estimated_diameter_max": 1863.0522284895
        }
    },
    "is_potentially_hazardous_asteroid": false,
    "close_approach_data": [
        {
            "close_approach_date": "2023-01-16",
            "close_approach_date_full": "2023-Jan-16 17:39",
            "epoch_date_close_approach": 1673890740000,
            "relative_velocity": {
                "kilometers_per_second": "13.5496992084",
                "kilometers_per_hour": "48778.9171501982",
                "miles_per_hour": "30309.322159244"
            },
            "miss_distance": {
                "astronomical": "0.3387528988",
                "lunar": "131.7748776332",
                "kilometers": "50676712.116805556",
                "miles": "31489048.7427904328"
            },
            "orbiting_body": "Earth"
        }
    ],
    "orbital_data": {
        "orbit_id": "7",
        "orbit_determination_date": "2020-02-22 10:47:23",
        "first_observation_date": "2020-01-20",
        "last_observation_date": "2020-02-21",
        "data_arc_in_days": 32,
        "observations_used": 42,
        "orbit_uncertainty": "7",
        "minimum_orbit_intersection": ".326731",
        "jupiter_tisserand_invariant": "3.591",
        "epoch_osculation": "2459000.5",
        "eccentricity": ".381809505021875",
        "semi_major_axis": "2.040452603939736",
        "inclination": "25.89444771545202",
        "ascending_node_longitude": "125.2628366555045",
        "orbital_period": "1064.604245833601",
        "perihelion_distance": "1.261388405208909",
        "perihelion_argument": "323.4139915453876",
        "aphelion_distance": "2.819516802670562",
        "perihelion_time": "2458859.119473599699",
        "mean_anomaly": "47.8083660696424",
        "mean_motion": ".3381538270290429",
        "equinox": "J2000",
        "orbit_class": {
            "orbit_class_type": "AMO",
            "orbit_class_description": "Near-Earth asteroid orbits similar to that of 1221 Amor",
            "orbit_class_range": "1.017 AU < q (perihelion) < 1.3 AU"
        }
    },
    "is_sentry_object": false
}